[{"OBJECT_NAME":"STARLINK-3615","OBJECT_ID":"2022-017L","EPOCH":"2026-03-09T22:20:27.355488","MEAN_MOTION":15.08837163,"ECCENTRICITY":0.00014802,"INCLINATION":53.2212,"RA_OF_ASC_NODE":327.9103,"ARG_OF_PERICENTER":104.7654,"MEAN_ANOMALY":255.3502,"EPHEMERIS_TYPE":0,"CLASSIFICATION_TYPE":"U","NORAD_CAT_ID":51778,"ELEMENT_SET_NO":999,"REV_AT_EPOCH":22259,"BSTAR":-1.7228108e-5,"MEAN_MOTION_DOT":-5.62e-6,"MEAN_MOTION_DDOT":0},{"OBJECT_NAME":"CZ-4B DEB","OBJECT_ID":"2004-035N","EPOCH":"2026-03-08T07:19:22.074240","MEAN_MOTION":15.17712882,"ECCENTRICITY":0.00700404,"INCLINATION":97.867,"RA_OF_ASC_NODE":11.9774,"ARG_OF_PERICENTER":119.6038,"MEAN_ANOMALY":241.2197,"EPHEMERIS_TYPE":0,"CLASSIFICATION_TYPE":"U","NORAD_CAT_ID":35270,"ELEMENT_SET_NO":999,"REV_AT_EPOCH":13623,"BSTAR":0.0033008842,"MEAN_MOTION_DOT":0.00071474,"MEAN_MOTION_DDOT":0}]
